NORAD_CAT_ID,OBJECT_NAME,OBJECT_TYPE,EPOCH,MEAN_MOTION,ECCENTRICITY,INCLINATION,RA_OF_ASC_NODE,ARG_OF_PERICENTER,MEAN_ANOMALY,BSTAR,MEAN_MOTION_DOT,MEAN_MOTION_DDOT,TLE_LINE0,TLE_LINE1,TLE_LINE2,SEMIMAJOR_AXIS,PERIOD,APOGEE,PERIGEE,DECAYED
51125.0,STARLINK-3387,PAYLOAD,2022-02-24 22:00:00,15.73163332,0.0003097,53.2151,92.0009,13.6224,277.705,0.0005043,0.00070652,0.0,0 STARLINK-3387,1 51125U 22005X   22055.91667824  .00070652  00000-0  50430-3 0  9995,2 51125  53.2151  92.0009 0003097  13.6224 277.7050 15.73163332  3689,6728.0,91.535,351.9480000000001,347.781,0.0
51125.0,STARLINK-3387,PAYLOAD,2022-02-25 00:00:00,15.73179994,0.0003051,53.2152,91.5882,13.1919,30.3585,0.00030776,0.00042761,0.0,0 STARLINK-3387,1 51125U 22005X   22056.00001157  .00042761  00000-0  30776-3 0  9998,2 51125  53.2152  91.5882 0003051  13.1919  30.3585 15.73179994  7130,6727.9519999999975,91.534,351.87,347.765,0.0
51125.0,STARLINK-3387,PAYLOAD,2022-02-25 14:00:01,15.731753,0.0003345,53.2155,88.704,8.1147,101.0339,-0.00018956,-0.00027121,0.0,0 STARLINK-3387,1 51125U 22005X   22056.58334491 -.00027121  00000-0 -18956-3 0  9992,2 51125  53.2155  88.7040 0003345   8.1147 101.0339 15.73175300  7220,6727.965999999999,91.535,352.081,347.58,0.0
51125.0,STARLINK-3387,PAYLOAD,2022-02-25 22:00:00,15.7311868,0.0003128,53.2157,87.0525,7.1233,190.9363,0.00060902,0.0008544,0.0,0 STARLINK-3387,1 51125U 22005X   22056.91667824  .00085440  00000-0  60902-3 0  9992,2 51125  53.2157  87.0525 0003128   7.1233 190.9363 15.73118680  3695,6728.127,91.538,352.097,347.88699999999994,0.0
51125.0,STARLINK-3387,PAYLOAD,2022-02-26 06:00:00,15.73189353,0.0003263,53.2156,85.4043,9.9701,276.953,7.5882e-05,0.00010037,0.0,0 STARLINK-3387,1 51125U 22005X   22057.25001157  .00010037  00000-0  75882-4 0  9995,2 51125  53.2156  85.4043 0003263   9.9701 276.9530 15.73189353  7332,6727.926,91.534,351.986,347.595,0.0
51125.0,STARLINK-3387,PAYLOAD,2022-02-26 14:00:01,15.73184649,0.000347,53.215,83.7557,10.1192,5.7017,0.00043037,0.00060187,0.0,0 STARLINK-3387,1 51125U 22005X   22057.58334491  .00060187  00000-0  43037-3 0  9998,2 51125  53.2150  83.7557 0003470  10.1192   5.7017 15.73184649  3703,6727.939,91.534,352.139,347.469,0.0
51125.0,STARLINK-3387,PAYLOAD,2022-02-26 22:00:00,15.73204555,0.0003251,53.2172,82.0828,10.2776,94.3544,-7.689699999999998e-07,-7.31e-06,0.0,0 STARLINK-3387,1 51125U 22005X   22057.91667824 -.00000731  00000-0 -76897-6 0  9998,2 51125  53.2172  82.0828 0003251  10.2776  94.3544 15.73204555  7438,6727.882,91.533,351.934,347.56,0.0
51125.0,STARLINK-3387,PAYLOAD,2022-02-27 06:00:00,15.73274182,0.0003262,53.2154,80.4558,11.4358,182.2642,-0.00061133,-0.00085849,0.0,0 STARLINK-3387,1 51125U 22005X   22058.25001157 -.00085849  00000-0 -61133-3 0  9994,2 51125  53.2154  80.4558 0003262  11.4358 182.2642 15.73274182  7496,6727.684,91.529,351.74300000000005,347.35400000000016,0.0
51125.0,STARLINK-3387,PAYLOAD,2022-02-27 14:00:01,15.73201339,0.0003435,53.2152,78.8068,8.8786,273.8244,0.00032668,0.00045488,0.0,0 STARLINK-3387,1 51125U 22005X   22058.58334491  .00045488  00000-0  32668-3 0  9994,2 51125  53.2152  78.8068 0003435   8.8786 273.8244 15.73201339  7543,6727.891,91.533,352.06699999999995,347.445,0.0
51125.0,STARLINK-3387,PAYLOAD,2022-02-27 22:00:00,15.7324349,0.0003253,53.2154,77.1551,11.7484,359.9152,-3.1597e-05,-5.065e-05,0.0,0 STARLINK-3387,1 51125U 22005X   22058.91667824 -.00005065  00000-0 -31597-4 0  9990,2 51125  53.2154  77.1551 0003253  11.7484 359.9152 15.73243490  3702,6727.771,91.531,351.825,347.4480000000001,0.0
51125.0,STARLINK-3387,PAYLOAD,2022-02-28 06:00:00,15.73236086,0.0003431,53.2153,75.5069,14.1712,86.4756,-0.00073124,-0.00102208,0.0,0 STARLINK-3387,1 51125U 22005X   22059.25001157 -.00102208  00000-0 -73124-3 0  9997,2 51125  53.2153  75.5069 0003431  14.1712  86.4756 15.73236086  7648,6727.792,91.531,351.966,347.349,0.0
51125.0,STARLINK-3387,PAYLOAD,2022-02-28 14:00:01,15.73182872,0.0003494,53.2147,73.8577,12.6838,176.8956,0.00025474,0.00035262,0.0,0 STARLINK-3387,1 51125U 22005X   22059.58334491  .00035262  00000-0  25474-3 0  9991,2 51125  53.2147  73.8577 0003494  12.6838 176.8956 15.73182872  7691,6727.944,91.534,352.16,347.458,0.0
51125.0,STARLINK-3387,PAYLOAD,2022-02-28 22:00:00,15.73186646,0.0003183,53.2147,72.2061,12.1052,266.3963,-0.00019924,-0.00028482,0.0,0 STARLINK-3387,1 51125U 22005X   22059.91667824 -.00028482  00000-0 -19924-3 0  9998,2 51125  53.2147  72.2061 0003183  12.1052 266.3963 15.73186646  7753,6727.933000000001,91.534,351.94,347.657,0.0
51125.0,STARLINK-3387,PAYLOAD,2022-03-01 14:00:01,15.73192657,0.0003478,53.215,68.9088,11.1457,85.1334,0.00024998,0.00034603,0.0,0 STARLINK-3387,1 51125U 22005X   22060.58334491  .00034603  00000-0  24998-3 0  9991,2 51125  53.2150  68.9088 0003478  11.1457  85.1334 15.73192657  7852,6727.916,91.534,352.121,347.441,0.0
51125.0,STARLINK-3387,PAYLOAD,2022-03-01 22:00:01,15.7320897,0.0003229,53.2152,67.2571,12.5637,172.7078,0.00026299,0.00036469,0.0,0 STARLINK-3387,1 51125U 22005X   22060.91668981  .00036469  00000-0  26299-3 0  9990,2 51125  53.2152  67.2571 0003229  12.5637 172.7078 15.73208970  3706,6727.87,91.533,351.907,347.56199999999984,0.0
51125.0,STARLINK-3387,PAYLOAD,2022-03-02 06:00:00,15.73210613,0.0003465,53.2152,65.6092,12.3535,261.8162,-6.0445e-05,-9.104e-05,0.0,0 STARLINK-3387,1 51125U 22005X   22061.25001157 -.00009104  00000-0 -60445-4 0  9994,2 51125  53.2152  65.6092 0003465  12.3535 261.8162 15.73210613  7966,6727.865,91.533,352.061,347.399,0.0
51125.0,STARLINK-3387,PAYLOAD,2022-03-02 14:00:01,15.73233231,0.0003495,53.2147,63.9596,10.0608,353.0281,-8.775700000000001e-05,-0.00012943,0.0,0 STARLINK-3387,1 51125U 22005X   22061.58334491 -.00012943  00000-0 -87757-4 0  9990,2 51125  53.2147  63.9596 0003495  10.0608 353.0281 15.73233231  3670,6727.8,91.531,352.017,347.314,0.0
51125.0,STARLINK-3387,PAYLOAD,2022-03-02 22:00:00,15.73178889,0.0003139,53.2149,62.3081,9.4567,82.6034,0.00025466,0.00035243,0.0,0 STARLINK-3387,1 51125U 22005X   22061.91667824  .00035243  00000-0  25466-3 0  9990,2 51125  53.2149  62.3081 0003139   9.4567  82.6034 15.73178889  3695,6727.955,91.534,351.932,347.708,0.0
51125.0,STARLINK-3387,PAYLOAD,2022-03-03 14:00:01,15.73178645,0.0003394,53.2153,59.0105,5.3924,264.4942,9.8781e-05,0.00013253,0.0,0 STARLINK-3387,1 51125U 22005X   22062.58334491  .00013253  00000-0  98781-4 0  9993,2 51125  53.2153  59.0105 0003394   5.3924 264.4942 15.73178645  8171,6727.956,91.534,352.105,347.538,0.0
51125.0,STARLINK-3387,PAYLOAD,2022-03-03 22:00:00,15.73169954,0.0003212,53.2157,57.3591,8.0089,350.7826,0.00057829,0.00081237,0.0,0 STARLINK-3387,1 51125U 22005X   22062.91667824  .00081237  00000-0  57829-3 0  9993,2 51125  53.2157  57.3591 0003212   8.0089 350.7826 15.73169954  3691,6727.981,91.535,352.00699999999995,347.685,0.0
51125.0,STARLINK-3387,PAYLOAD,2022-03-04 06:00:02,15.73248884,0.0003416,53.2157,55.7113,7.822,80.0524,-0.0005245,-0.00073772,0.0,0 STARLINK-3387,1 51125U 22005X   22063.25002315 -.00073772  00000-0 -52450-3 0  9991,2 51125  53.2157  55.7113 0003416   7.8220  80.0524 15.73248884  8270,6727.755999999999,91.53,351.9190000000001,347.3230000000001,0.0
51125.0,STARLINK-3387,PAYLOAD,2022-03-04 14:00:01,15.73220525,0.0003395,53.2154,54.0613,6.817,170.0099,8.6471e-05,0.00011543,0.0,0 STARLINK-3387,1 51125U 22005X   22063.58335648  .00011543  00000-0  86471-4 0  9992,2 51125  53.2154  54.0613 0003395   6.8170 170.0099 15.73220525  8328,6727.837,91.532,351.986,347.418,0.0
51125.0,STARLINK-3387,PAYLOAD,2022-03-04 22:00:00,15.73253439,0.0003135,53.2156,52.4102,9.5575,256.1584,-0.0001447,-0.00020933,0.0,0 STARLINK-3387,1 51125U 22005X   22063.91667824 -.00020933  00000-0 -14470-3 0  9997,2 51125  53.2156  52.4102 0003135   9.5575 256.1584 15.73253439  3696,6727.743,91.53,351.717,347.499,0.0
51125.0,STARLINK-3387,PAYLOAD,2022-03-05 06:00:00,15.73220282,0.0003323,53.2163,50.762,10.9599,343.7471,-0.00044098,-0.00062131,0.0,0 STARLINK-3387,1 51125U 22005X   22064.25001157 -.00062131  00000-0 -44098-3 0  9991,2 51125  53.2163  50.7620 0003323  10.9599 343.7471 15.73220282  3745,6727.837,91.532,351.93800000000016,347.467,0.0
51125.0,STARLINK-3387,PAYLOAD,2022-03-05 14:00:01,15.73228122,0.0003348,53.216,49.1125,8.3462,75.2853,-0.00012762,-0.00018522,0.0,0 STARLINK-3387,1 51125U 22005X   22064.58334491 -.00018522  00000-0 -12762-3 0  9995,2 51125  53.2160  49.1125 0003348   8.3462  75.2853 15.73228122  8489,6727.815,91.532,351.932,347.42800000000005,0.0
51125.0,STARLINK-3387,PAYLOAD,2022-03-05 22:00:01,15.73183283,0.0003107,53.2165,47.4614,7.7943,164.8534,0.00022758,0.0003142,0.0,0 STARLINK-3387,1 51125U 22005X   22064.91668981  .00031420  00000-0  22758-3 0  9992,2 51125  53.2165  47.4614 0003107   7.7943 164.8534 15.73183283  3707,6727.943,91.534,351.898,347.717,0.0
51125.0,STARLINK-3387,PAYLOAD,2022-03-06 14:00:01,15.73179738,0.000331,53.2162,44.1638,8.4266,342.0382,-3.2231e-05,-5.141e-05,0.0,0 STARLINK-3387,1 51125U 22005X   22065.58334491 -.00005141  00000-0 -32231-4 0  9993,2 51125  53.2162  44.1638 0003310   8.4266 342.0382 15.73179738  3695,6727.953,91.534,352.045,347.591,0.0
51125.0,STARLINK-3387,PAYLOAD,2022-03-06 22:00:00,15.73210849,0.0003142,53.2165,42.5132,13.2122,66.1442,-0.00011968,-0.00017397,0.0,0 STARLINK-3387,1 51125U 22005X   22065.91667824 -.00017397  00000-0 -11968-3 0  9998,2 51125  53.2165  42.5132 0003142  13.2122  66.1442 15.73210849  8692,6727.864000000001,91.533,351.843,347.615,0.0
51125.0,STARLINK-3387,PAYLOAD,2022-03-07 06:00:00,15.73169906,0.0003381,53.2165,40.8659,13.3216,154.9707,-0.00032925,-0.00046533,0.0,0 STARLINK-3387,1 51125U 22005X   22066.25001157 -.00046533  00000-0 -32925-3 0  9997,2 51125  53.2165  40.8659 0003381  13.3216 154.9707 15.73169906  8740,6727.981,91.535,352.121,347.571,0.0
